     2.10           G: GLONASS NAV DATA                     RINEX VERSION / TYPE
teqc  2015Jun23                         20220122 01:25:45UTCPGM / RUN BY / DATE
Linux 2.4.21-27.ELsmp|Opteron|gcc -static|Linux x86_64|=+   COMMENT
  2021    12    29    1.396983861923D-09                    CORR TO SYSTEM TIME
                                                            END OF HEADER
22 21 12 30  7 45  0.0-1.547737047076D-04-2.728484105319D-12 2.700000000000D+04
   -1.665911865234D+04-1.479542732239D+00 0.000000000000D+00 0.000000000000D+00
    1.447184521484D+04 9.502601623535D-01-9.313225746155D-10-3.000000000000D+00
   -1.271654931641D+04 3.029692649841D+00 1.862645149231D-09 0.000000000000D+00
23 21 12 30  7 45  0.0-2.504698932171D-05-9.094947017729D-13 2.832000000000D+04
    3.049852539062D+03-2.854418754578D+00 3.725290298462D-09 0.000000000000D+00
    1.006300830078D+04 1.418279647827D+00 9.313225746155D-10 3.000000000000D+00
   -2.323998925781D+04 2.395563125610D-01 9.313225746155D-10 0.000000000000D+00
 2 21 12 30  7 45  0.0 5.049034953117D-04 9.094947017729D-13 2.844000000000D+04
    9.256277832031D+03-9.454441070557D-02 0.000000000000D+00 0.000000000000D+00
    1.119247265625D+04 2.866322517395D+00-9.313225746155D-10-4.000000000000D+00
    2.098759375000D+04-1.495557785034D+00-3.725290298462D-09 0.000000000000D+00
21 21 12 30  8 15  0.0-2.661431208253D-04-2.728484105319D-12 2.880000000000D+04
   -2.167514843750D+04 1.215938568115D+00-2.793967723846D-09 0.000000000000D+00
    9.417273925781D+03-5.589113235474D-01-1.862645149231D-09 4.000000000000D+00
    9.642478515625D+03 3.278733253479D+00 9.313225746155D-10 0.000000000000D+00
23 21 12 30  8 15  0.0-2.504978328943D-05-9.094947017729D-13 2.880000000000D+04
   -1.766071777344D+03-2.455624580383D+00 1.862645149231D-09 0.000000000000D+00
    1.293161279297D+04 1.735429763794D+00-0.000000000000D+00 3.000000000000D+00
   -2.191611621094D+04 1.221872329712D+00 1.862645149231D-09 0.000000000000D+00
 1 21 12 30  8 15  0.0 7.318332791328D-06-0.000000000000D+00 2.880000000000D+04
    2.160797363281D+03 1.335182189941D-01 1.862645149231D-09 0.000000000000D+00
    2.540357128906D+04-1.441383361816D-01-9.313225746155D-10 1.000000000000D+00
   -9.510341796875D+02-3.559018135071D+00-9.313225746155D-10 0.000000000000D+00
 2 21 12 30  8 15  0.0 5.049062892795D-04 9.094947017729D-13 2.880000000000D+04
    9.450104003906D+03 2.873373031616D-01 0.000000000000D+00 0.000000000000D+00
    1.595293457031D+04 2.379434585571D+00-9.313225746155D-10-4.000000000000D+00
    1.752007617188D+04-2.332480430603D+00-2.793967723846D-09 0.000000000000D+00
 8 21 12 30  8 15  0.0-6.279535591602D-05-0.000000000000D+00 2.880000000000D+04
   -5.848161621094D+03-4.960346221924D-02 1.862645149231D-09 0.000000000000D+00
    1.933212988281D+04-2.138187408447D+00-9.313225746155D-10 6.000000000000D+00
   -1.551037500000D+04-2.640312194824D+00 9.313225746155D-10 0.000000000000D+00
12 21 12 30  8 15  0.0 2.907179296017D-04 3.637978807092D-12 2.880000000000D+04
    8.606972167969D+03-2.360671997070D+00-0.000000000000D+00 0.000000000000D+00
    1.422664160156D+04-1.197668075562D+00-9.313225746155D-10-1.000000000000D+00
    1.935654492188D+04 1.934351921082D+00-2.793967723846D-09 0.000000000000D+00
22 21 12 30  8 15  0.0-1.547792926431D-04-2.728484105319D-12 2.880000000000D+04
   -1.858000390625D+04-6.542015075684D-01-9.313225746155D-10 0.000000000000D+00
    1.600918847656D+04 7.128677368164D-01-1.862645149231D-09-3.000000000000D+00
   -6.839855957031D+03 3.457415580750D+00 1.862645149231D-09 0.000000000000D+00
21 21 12 30  8 45  0.0-2.661477774382D-04-2.728484105319D-12 3.060000000000D+04
   -1.903991406250D+04 1.667604446411D+00-3.725290298462D-09 0.000000000000D+00
    7.811664550781D+03-1.235918045044D+00-1.862645149231D-09 4.000000000000D+00
    1.509596630859D+04 2.741419792175D+00 0.000000000000D+00 0.000000000000D+00
23 21 12 30  8 45  0.0-2.505164593458D-05-9.094947017729D-13 3.060000000000D+04
   -5.669044921875D+03-1.855561256409D+00 9.313225746155D-10 0.000000000000D+00
    1.616752392578D+04 1.815492630005D+00-9.313225746155D-10 3.000000000000D+00
   -1.889802929688D+04 2.109799385071D+00 1.862645149231D-09 0.000000000000D+00
 1 21 12 30  8 45  0.0 7.318332791328D-06-0.000000000000D+00 3.060000000000D+04
    2.231103515625D+03-9.316730499268D-02 1.862645149231D-09 0.000000000000D+00
    2.436353564453D+04-9.956455230713D-01-9.313225746155D-10 1.000000000000D+00
   -7.237785644531D+03-3.380927085876D+00 0.000000000000D+00 0.000000000000D+00
 2 21 12 30  8 45  0.0 5.049128085375D-04 9.094947017729D-13 3.060000000000D+04
    1.018439501953D+04 4.931373596191D-01 9.313225746155D-10 0.000000000000D+00
    1.962399707031D+04 1.669622421265D+00-9.313225746155D-10-4.000000000000D+00
    1.269836914062D+04-2.990347862244D+00-2.793967723846D-09 0.000000000000D+00
 8 21 12 30  8 45  0.0-6.279721856117D-05-9.094947017729D-13 3.060000000000D+04
   -6.307410644531D+03-4.807424545288D-01 9.313225746155D-10 0.000000000000D+00
    1.497902929688D+04-2.655091285706D+00-0.000000000000D+00 6.000000000000D+00
   -1.959850244141D+04-1.872343063354D+00 1.862645149231D-09 0.000000000000D+00
22 21 12 30  8 45  0.0-1.547848805785D-04-2.728484105319D-12 3.060000000000D+04
   -1.904797216797D+04 1.153602600098D-01-1.862645149231D-09 0.000000000000D+00
    1.688448486328D+04 2.208890914917D-01-1.862645149231D-09-3.000000000000D+00
   -4.314282226562D+02 3.616562843323D+00 9.313225746155D-10 0.000000000000D+00
12 21 12 30  8 45  0.0 2.907235175371D-04 3.637978807092D-12 3.069000000000D+04
    3.875442871094D+03-2.859189987183D+00-9.313225746155D-10 0.000000000000D+00
    1.226300439453D+04-9.511852264404D-01-9.313225746155D-10-1.000000000000D+00
    2.204626660156D+04 1.034964561462D+00-2.793967723846D-09 0.000000000000D+00
23 21 12 30  9 15  0.0-2.505443990231D-05-9.094947017729D-13 3.240000000000D+04
   -8.387958007812D+03-1.158998489380D+00-0.000000000000D+00 0.000000000000D+00
    1.929766503906D+04 1.614259719849D+00-9.313225746155D-10 3.000000000000D+00
   -1.441890869141D+04 2.834699630737D+00 1.862645149231D-09 0.000000000000D+00
 1 21 12 30  9 15  0.0 7.318332791328D-06-0.000000000000D+00 3.240000000000D+04
    1.704736328125D+03-5.196638107300D-01 1.862645149231D-09 0.000000000000D+00
    2.190773339844D+04-1.700491905212D+00-9.313225746155D-10 1.000000000000D+00
   -1.296521533203D+04-2.941591262817D+00 9.313225746155D-10 0.000000000000D+00
 2 21 12 30  9 15  0.0 5.049146711826D-04 9.094947017729D-13 3.240000000000D+04
    1.108369873047D+04 4.642095565796D-01 9.313225746155D-10 0.000000000000D+00
    2.188754052734D+04 8.337001800537D-01-1.862645149231D-09-4.000000000000D+00
    6.893572753906D+03-3.417562484741D+00-1.862645149231D-09 0.000000000000D+00
 8 21 12 30  9 15  0.0-6.279814988375D-05-9.094947017729D-13 3.240000000000D+04
   -7.620818359375D+03-9.813451766968D-01 9.313225746155D-10 0.000000000000D+00
    9.945640136719D+03-2.887102127075D+00-0.000000000000D+00 6.000000000000D+00
   -2.216312304688D+04-9.586219787598D-01 2.793967723846D-09 0.000000000000D+00
12 21 12 30  9 15  0.0 2.907300367951D-04 3.637978807092D-12 3.240000000000D+04
   -1.530176269531D+03-3.099116325378D+00-2.793967723846D-09 0.000000000000D+00
    1.089610742188D+04-5.493516921997D-01-9.313225746155D-10-1.000000000000D+00
    2.303474169922D+04 5.631732940674D-02-1.862645149231D-09 0.000000000000D+00
22 21 12 30  9 15  0.0-1.547904685140D-04-2.728484105319D-12 3.240000000000D+04
   -1.826286083984D+04 7.223625183105D-01-3.725290298462D-09 0.000000000000D+00
    1.668640771484D+04-4.664926528931D-01-9.313225746155D-10-3.000000000000D+00
    6.010544433594D+03 3.494420051575D+00 9.313225746155D-10 0.000000000000D+00
24 21 12 30  9 15  0.0 7.343757897615D-05 1.818989403546D-12 3.306000000000D+04
    3.671572753906D+03-1.993590354919D+00 2.793967723846D-09 0.000000000000D+00
    1.167676708984D+04 2.332980155945D+00-0.000000000000D+00 2.000000000000D+00
   -2.235802636719D+04 8.886470794678D-01 1.862645149231D-09 0.000000000000D+00
23 21 12 30  9 45  0.0-2.505630254745D-05-9.094947017729D-13 3.420000000000D+04
   -9.853419921875D+03-4.821376800537D-01-9.313225746155D-10 0.000000000000D+00
    2.181034521484D+04 1.133757591248D+00-9.313225746155D-10 3.000000000000D+00
   -8.824917480469D+03 3.340491294861D+00 1.862645149231D-09 0.000000000000D+00
 1 21 12 30  9 45  0.0 7.318332791328D-06-0.000000000000D+00 3.420000000000D+04
    2.854121093750D+02-1.070142745972D+00 9.313225746155D-10 0.000000000000D+00
    1.838177001953D+04-2.173270225525D+00-9.313225746155D-10 1.000000000000D+00
   -1.769080712891D+04-2.275001525879D+00 1.862645149231D-09 0.000000000000D+00
 2 21 12 30  9 45  0.0 5.049165338278D-04 0.000000000000D+00 3.420000000000D+04
    1.170393505859D+04 1.841459274292D-01 9.313225746155D-10 0.000000000000D+00
    2.261856201172D+04-1.350021362305D-02-1.862645149231D-09-4.000000000000D+00
    5.543144531250D+02-3.580187797546D+00-9.313225746155D-10 0.000000000000D+00
22 21 12 30  9 45  0.0-1.547969877720D-04-2.728484105319D-12 3.420000000000D+04
   -1.659176904297D+04 1.090312957764D+00-3.725290298462D-09 0.000000000000D+00
    1.514467919922D+04-1.253895759583D+00-9.313225746155D-10-3.000000000000D+00
    1.198501806641D+04 3.100560188293D+00 0.000000000000D+00 0.000000000000D+00
24 21 12 30  9 45  0.0 7.343944162130D-05 1.818989403546D-12 3.420000000000D+04
    5.615224609375D+02-1.445007324219D+00 9.313225746155D-10 0.000000000000D+00
    1.590867431641D+04 2.321261405945D+00-9.313225746155D-10 2.000000000000D+00
   -1.991322265625D+04 1.810061454773D+00 1.862645149231D-09 0.000000000000D+00
12 21 12 30  9 45  0.0 2.907356247306D-04 3.637978807092D-12 3.477000000000D+04
   -7.099929687500D+03-3.038169860840D+00-3.725290298462D-09 0.000000000000D+00
    1.031973535156D+04-9.048366546631D-02-0.000000000000D+00-1.000000000000D+00
    2.224665966797D+04-9.262399673462D-01-9.313225746155D-10 0.000000000000D+00
